[{"OBJECT_NAME":"RAVAN","OBJECT_ID":"2016-067B","EPOCH":"2026-03-09T15:26:34.287360","MEAN_MOTION":15.46151325,"ECCENTRICITY":0.0006137,"INCLINATION":98.0039,"RA_OF_ASC_NODE":307.3532,"ARG_OF_PERICENTER":6.7222,"MEAN_ANOMALY":353.4107,"EPHEMERIS_TYPE":0,"CLASSIFICATION_TYPE":"U","NORAD_CAT_ID":41849,"ELEMENT_SET_NO":999,"REV_AT_EPOCH":51227,"BSTAR":0.00076908,"MEAN_MOTION_DOT":0.00037768,"MEAN_MOTION_DDOT":0},{"OBJECT_NAME":"CZ-2C R\/B","OBJECT_ID":"2024-203E","EPOCH":"2026-03-09T21:58:29.775360","MEAN_MOTION":15.29569733,"ECCENTRICITY":0.00782655,"INCLINATION":97.3142,"RA_OF_ASC_NODE":134.7565,"ARG_OF_PERICENTER":232.0261,"MEAN_ANOMALY":127.3893,"EPHEMERIS_TYPE":0,"CLASSIFICATION_TYPE":"U","NORAD_CAT_ID":61873,"ELEMENT_SET_NO":999,"REV_AT_EPOCH":7395,"BSTAR":0.00041889655,"MEAN_MOTION_DOT":0.00013106,"MEAN_MOTION_DDOT":0}]
